MALLIGYONG-1            
1 58400U 23179A   24086.93782526  .00008068  00000+0  35989-3 0  9999
2 58400  97.4151 335.0170 0009493 179.8589 180.2651 15.21616014 19210
